NORAD_CAT_ID,OBJECT_NAME,OBJECT_TYPE,EPOCH,MEAN_MOTION,ECCENTRICITY,INCLINATION,RA_OF_ASC_NODE,ARG_OF_PERICENTER,MEAN_ANOMALY,BSTAR,MEAN_MOTION_DOT,MEAN_MOTION_DDOT,TLE_LINE0,TLE_LINE1,TLE_LINE2,SEMIMAJOR_AXIS,PERIOD,APOGEE,PERIGEE,DECAYED
52502.0,STARLINK-3912,PAYLOAD,2023-02-24 04:39:58,15.08902962,0.0001245,53.218,339.8354,68.5109,291.6016,0.0021489,0.00034137,0.0,0 STARLINK-3912,1 52502U 22049BD  23055.19443231  .00034137  00000-0  21489-2 0  9997,2 52502  53.2180 339.8354 0001245  68.5109 291.6016 15.08902962 45197,6917.688,95.434,540.414,538.692,0.0
52502.0,STARLINK-3912,PAYLOAD,2023-02-24 18:58:27,15.08842974,0.0001169,53.2187,337.1584,86.5648,273.5478,8.6862e-05,1.095e-05,0.0,0 STARLINK-3912,1 52502U 22049BD  23055.79059628  .00001095  00000-0  86862-4 0  9991,2 52502  53.2187 337.1584 0001169  86.5648 273.5478 15.08842974 45123,6917.871,95.437,540.545,538.928,0.0
52502.0,STARLINK-3912,PAYLOAD,2023-02-25 01:20:00,15.08827972,9.26e-05,53.2179,335.9697,89.6904,270.4194,0.00095344,0.00014914,0.0,0 STARLINK-3912,1 52502U 22049BD  23056.05556121  .00014914  00000-0  95344-3 0  9999,2 52502  53.2179 335.9697 0000926  89.6904 270.4194 15.08827972 45328,6917.917,95.438,540.423,539.142,0.0
52502.0,STARLINK-3912,PAYLOAD,2023-02-25 04:30:46,15.08830568,0.0001205,53.2181,335.3753,92.9985,267.1145,0.0015061,0.00023757,0.0,0 STARLINK-3912,1 52502U 22049BD  23056.18804239  .00023757  00000-0  15061-2 0  9991,2 52502  53.2181 335.3753 0001205  92.9985 267.1145 15.08830568 45183,6917.909,95.438,540.608,538.941,0.0
52502.0,STARLINK-3912,PAYLOAD,2023-02-26 02:46:11,15.08856639,0.0001328,53.2197,331.2145,99.1309,260.9833,0.0013445,0.00021184,0.0,0 STARLINK-3912,1 52502U 22049BD  23057.11540605  .00021184  00000-0  13445-2 0  9995,2 52502  53.2197 331.2145 0001328  99.1309 260.9833 15.08856639 45480,6917.83,95.437,540.613,538.776,0.0
52502.0,STARLINK-3912,PAYLOAD,2023-02-26 18:40:02,15.08860386,0.0001408,53.22,328.2421,102.9853,257.1297,0.00084967,0.00013268,0.0,0 STARLINK-3912,1 52502U 22049BD  23057.77780176  .00013268  00000-0  84967-3 0  9998,2 52502  53.2200 328.2421 0001408 102.9853 257.1297 15.08860386 45581,6917.818,95.436,540.657,538.709,0.0
52502.0,STARLINK-3912,PAYLOAD,2023-02-27 02:36:56,15.08880261,0.0001167,53.2184,326.7512,101.5229,258.5895,0.001245,0.00019603,0.0,0 STARLINK-3912,1 52502U 22049BD  23058.10899291  .00019603  00000-0  12450-2 0  9991,2 52502  53.2184 326.7512 0001167 101.5229 258.5895 15.08880261 45639,6917.757,95.435,540.43,538.815,0.0
52502.0,STARLINK-3912,PAYLOAD,2023-02-27 18:30:47,15.08903969,0.0001444,53.2186,323.778,104.4474,255.6678,0.0023788,0.00037841,0.0,0 STARLINK-3912,1 52502U 22049BD  23058.77138254  .00037841  00000-0  23788-2 0  9999,2 52502  53.2186 323.7780 0001444 104.4474 255.6678 15.08903969 45736,6917.685,95.434,540.549,538.551,0.0
52502.0,STARLINK-3912,PAYLOAD,2023-02-28 04:03:06,15.08872464,6.72e-05,53.2187,321.9958,73.0228,287.0838,0.0010544,0.00016548,0.0,0 STARLINK-3912,1 52502U 22049BD  23059.16882007  .00016548  00000-0  10544-2 0  9992,2 52502  53.2187 321.9958 0000672  73.0228 287.0838 15.08872464 45792,6917.781,95.436,540.111,539.181,0.0
52502.0,STARLINK-3912,PAYLOAD,2023-02-28 21:32:23,15.08792555,0.0001233,53.2177,318.7238,66.0827,294.0294,-0.0001687,-2.968e-05,0.0,0 STARLINK-3912,1 52502U 22049BD  23059.89749185 -.00002968  00000-0 -16870-3 0  9993,2 52502  53.2177 318.7238 0001233  66.0827 294.0294 15.08792555 45748,6918.025,95.441,540.743,539.037,0.0
52502.0,STARLINK-3912,PAYLOAD,2023-02-28 23:07:46,15.08795384,0.0001451,53.2179,318.4271,98.5542,261.5614,3.588e-05,2.83e-06,0.0,0 STARLINK-3912,1 52502U 22049BD  23059.96373335  .00000283  00000-0  35880-4 0  9990,2 52502  53.2179 318.4271 0001451  98.5542 261.5614 15.08795384 45917,6918.017,95.44,540.886,538.878,0.0
52502.0,STARLINK-3912,PAYLOAD,2023-03-01 07:04:42,15.08819144,0.0001264,53.2168,316.9393,107.1185,252.9946,0.0017871,0.00028252,0.0,0 STARLINK-3912,1 52502U 22049BD  23060.29493972  .00028252  00000-0  17871-2 0  9992,2 52502  53.2168 316.9393 0001264 107.1185 252.9946 15.08819144 45963,6917.944,95.439,540.684,538.935,0.0
52502.0,STARLINK-3912,PAYLOAD,2023-03-01 21:23:10,15.08857974,0.0001203,53.2167,314.263,102.2097,257.903,0.0017777,0.00028131,0.0,0 STARLINK-3912,1 52502U 22049BD  23060.89109844  .00028131  00000-0  17777-2 0  9991,2 52502  53.2167 314.2630 0001203 102.2097 257.9030 15.08857974 45892,6917.825,95.436,540.523,538.858,0.0
52502.0,STARLINK-3912,PAYLOAD,2023-03-02 16:27:48,15.08857708,0.0001399,53.2179,310.6952,102.4698,257.6451,0.0011304,0.00017757,0.0,0 STARLINK-3912,1 52502U 22049BD  23061.68597592  .00017757  00000-0  11304-2 0  9992,2 52502  53.2179 310.6952 0001399 102.4698 257.6451 15.08857708 46011,6917.826,95.436,540.659,538.723,0.0
52502.0,STARLINK-3912,PAYLOAD,2023-03-03 02:00:06,15.08869971,7.35e-05,53.2172,308.9093,123.2285,236.8778,0.0020349,0.00032273,0.0,0 STARLINK-3912,1 52502U 22049BD  23062.08341146  .00032273  00000-0  20349-2 0  9998,2 52502  53.2172 308.9093 0000735 123.2285 236.8778 15.08869971 46236,6917.789,95.436,540.162,539.145,0.0
52502.0,STARLINK-3912,PAYLOAD,2023-03-03 22:40:06,15.08884533,0.0001022,53.2182,305.0445,88.4795,271.6314,0.0022705,0.00036076,0.0,0 STARLINK-3912,1 52502U 22049BD  23062.94452495  .00036076  00000-0  22705-2 0  9996,2 52502  53.2182 305.0445 0001022  88.4795 271.6314 15.08884533 46362,6917.744,95.435,540.316,538.902,0.0
52502.0,STARLINK-3912,PAYLOAD,2023-03-04 01:50:52,15.08892308,0.0001029,53.2181,304.4496,87.6095,272.5015,0.0022254,0.00035358,0.0,0 STARLINK-3912,1 52502U 22049BD  23063.07700081  .00035358  00000-0  22254-2 0  9999,2 52502  53.2181 304.4496 0001029  87.6095 272.5015 15.08892308 46223,6917.721,95.434,540.297,538.874,0.0
52502.0,STARLINK-3912,PAYLOAD,2023-03-04 22:30:56,15.08820234,0.0002241,53.2178,300.5841,88.4051,271.7197,0.0018556,0.00029352,0.0,0 STARLINK-3912,1 52502U 22049BD  23063.93814992  .00029352  00000-0  18556-2 0  9998,2 52502  53.2178 300.5841 0002241  88.4051 271.7197 15.08820234 46511,6917.941,95.439,541.356,538.255,0.0
52502.0,STARLINK-3912,PAYLOAD,2023-03-05 01:41:42,15.08784789,0.0001141,53.2174,299.9892,61.1469,298.9637,0.00096854,0.00015137,0.0,0 STARLINK-3912,1 52502U 22049BD  23064.07063512  .00015137  00000-0  96854-3 0  9992,2 52502  53.2174 299.9892 0001141  61.1469 298.9637 15.08784789 46539,6918.049,95.441,540.704,539.125,0.0
52502.0,STARLINK-3912,PAYLOAD,2023-03-05 22:21:42,15.08862672,8.46e-05,53.2165,296.1265,48.2986,311.8079,0.0027886,0.000444,0.0,0 STARLINK-3912,1 52502U 22049BD  23064.93174595  .00044400  00000-0  27886-2 0  9994,2 52502  53.2165 296.1265 0000846  48.2986 311.8079 15.08862672 46660,6917.811,95.436,540.261,539.091,0.0
52502.0,STARLINK-3912,PAYLOAD,2023-03-06 01:32:28,15.08927605,9.52e-05,53.2178,295.5303,59.6532,300.4555,0.0036289,0.00058081,0.0,0 STARLINK-3912,1 52502U 22049BD  23065.06421363  .00058081  00000-0  36289-2 0  9994,2 52502  53.2178 295.5303 0000952  59.6532 300.4555 15.08927605 46684,6917.613,95.432,540.136,538.819,0.0
52502.0,STARLINK-3912,PAYLOAD,2023-03-06 22:12:29,15.08888057,0.0001271,53.2166,291.6638,90.9858,269.128,0.0044445,0.00071256,0.0,0 STARLINK-3912,1 52502U 22049BD  23065.92533921  .00071256  00000-0  44445-2 0  9995,2 52502  53.2166 291.6638 0001271  90.9858 269.1280 15.08888057 46653,6917.734,95.435,540.478,538.719,0.0
52502.0,STARLINK-3912,PAYLOAD,2023-03-07 06:09:25,15.08848265,0.000121,53.2162,290.1781,96.0878,264.0252,0.0024813,0.00039432,0.0,0 STARLINK-3912,1 52502U 22049BD  23066.25653981  .00039432  00000-0  24813-2 0  9998,2 52502  53.2162 290.1781 0001210  96.0878 264.0252 15.08848265 46867,6917.855,95.437,540.557,538.883,0.0
52502.0,STARLINK-3912,PAYLOAD,2023-03-07 14:06:20,15.08841959,0.0001203,53.2162,288.6911,92.5548,267.5582,0.0026926,0.00042828,0.0,0 STARLINK-3912,1 52502U 22049BD  23066.58774057  .00042828  00000-0  26926-2 0  9992,2 52502  53.2162 288.6911 0001203  92.5548 267.5582 15.08841959 46914,6917.874,95.437,540.572,538.907,0.0
52502.0,STARLINK-3912,PAYLOAD,2023-03-08 13:57:08,15.08851542,0.0005398,53.212,284.2301,98.7741,261.3862,0.0022429,0.00035608,0.0,0 STARLINK-3912,1 52502U 22049BD  23067.58135387  .00035608  00000-0  22429-2 0  9992,2 52502  53.2120 284.2301 0005398  98.7741 261.3862 15.08851542 47064,6917.845,95.437,543.444,535.976,0.0
52502.0,STARLINK-3912,PAYLOAD,2023-03-09 02:00:01,15.08821206,0.0001209,53.2151,281.9772,67.631,140.6797,0.0034036,0.00054269,0.0,0 STARLINK-3912,1 52502U 22049BD  23068.08334491  .00054269  00000-0  34036-2 0  9996,2 52502  53.2151 281.9772 0001209  67.6310 140.6797 15.08821206 47136,6917.938,95.439,540.639,538.966,0.0
52502.0,STARLINK-3912,PAYLOAD,2023-03-09 18:34:04,15.08883341,0.0001331,53.2157,278.8751,113.9507,246.1625,0.0021111,0.0003351,0.0,0 STARLINK-3912,1 52502U 22049BD  23068.77366669  .00033510  00000-0  21111-2 0  9990,2 52502  53.2157 278.8751 0001331 113.9507 246.1625 15.08883341 47245,6917.748,95.435,540.534,538.692,0.0
52502.0,STARLINK-3912,PAYLOAD,2023-03-09 21:44:50,15.08894705,0.000105,53.2175,278.2831,66.7058,293.4045,0.0022122,0.00035148,0.0,0 STARLINK-3912,1 52502U 22049BD  23068.90614427  .00035148  00000-0  22122-2 0  9995,2 52502  53.2175 278.2831 0001050  66.7058 293.4045 15.08894705 47104,6917.713,95.434,540.305,538.852,0.0
52502.0,STARLINK-3912,PAYLOAD,2023-03-10 08:52:32,15.08849596,0.000117,53.2156,276.2018,78.6385,281.4738,-3.929e-05,-9.13e-06,0.0,0 STARLINK-3912,1 52502U 22049BD  23069.36982386 -.00000913  00000-0 -39290-4 0  9998,2 52502  53.2156 276.2018 0001170  78.6385 281.4738 15.08849596 47335,6917.851,95.437,540.525,538.907,0.0
52502.0,STARLINK-3912,PAYLOAD,2023-03-10 20:00:14,15.08844538,0.000102,53.216,274.1188,89.9353,270.1756,0.0012757,0.00020076,0.0,0 STARLINK-3912,1 52502U 22049BD  23069.83350369  .00020076  00000-0  12757-2 0  9997,2 52502  53.2160 274.1188 0001020  89.9353 270.1756 15.08844538 47245,6917.867,95.437,540.437,539.026,0.0
